[{"CCSDS_OMM_VERS":"2.0","COMMENT":"GENERATED VIA SPACE-TRACK.ORG API","CREATION_DATE":"2021-05-17T22:26:11","ORIGINATOR":"18 SPCS","OBJECT_NAME":"ONEWEB-0220","OBJECT_ID":"2021-031Y","CENTER_NAME":"EARTH","REF_FRAME":"TEME","TIME_SYSTEM":"UTC","MEAN_ELEMENT_THEORY":"SGP4","EPOCH":"2021-05-17T14:00:01.000224","MEAN_MOTION":"15.34556492","ECCENTRICITY":"0.00115060","INCLINATION":"87.4254","RA_OF_ASC_NODE":"305.4465","ARG_OF_PERICENTER":"167.6075","MEAN_ANOMALY":"114.5357","EPHEMERIS_TYPE":"0","CLASSIFICATION_TYPE":"U","NORAD_CAT_ID":"48232","ELEMENT_SET_NO":"999","REV_AT_EPOCH":"332","BSTAR":"-0.04732200000000","MEAN_MOTION_DOT":"-0.01437902","MEAN_MOTION_DDOT":"0.0000000000000","SEMIMAJOR_AXIS":"6840.375","PERIOD":"93.838","APOAPSIS":"470.111","PERIAPSIS":"454.370","OBJECT_TYPE":"PAYLOAD","RCS_SIZE":"MEDIUM","COUNTRY_CODE":"UK","LAUNCH_DATE":"2021-04-25","SITE":"VOSTO","DECAY_DATE":null,"FILE":"3037254","GP_ID":"177378491","TLE_LINE0":"0 ONEWEB-0220","TLE_LINE1":"1 48232U 21031Y   21137.58334491 -.01437902  00000-0 -47322-1 0  9994","TLE_LINE2":"2 48232  87.4254 305.4465 0011506 167.6075 114.5357 15.34556492  3321"},{"CCSDS_OMM_VERS":"2.0","COMMENT":"GENERATED VIA SPACE-TRACK.ORG API","CREATION_DATE":"2021-05-18T04:26:33","ORIGINATOR":"18 SPCS","OBJECT_NAME":"ONEWEB-0220","OBJECT_ID":"2021-031Y","CENTER_NAME":"EARTH","REF_FRAME":"TEME","TIME_SYSTEM":"UTC","MEAN_ELEMENT_THEORY":"SGP4","EPOCH":"2021-05-17T22:00:00.999936","MEAN_MOTION":"15.33519397","ECCENTRICITY":"0.00114190","INCLINATION":"87.4282","RA_OF_ASC_NODE":"305.3293","ARG_OF_PERICENTER":"166.5758","MEAN_ANOMALY":"155.1196","EPHEMERIS_TYPE":"0","CLASSIFICATION_TYPE":"U","NORAD_CAT_ID":"48232","ELEMENT_SET_NO":"999","REV_AT_EPOCH":"182","BSTAR":"-0.04544400000000","MEAN_MOTION_DOT":"-0.01344496","MEAN_MOTION_DDOT":"0.0000000000000","SEMIMAJOR_AXIS":"6843.459","PERIOD":"93.902","APOAPSIS":"473.138","PERIAPSIS":"457.509","OBJECT_TYPE":"PAYLOAD","RCS_SIZE":"MEDIUM","COUNTRY_CODE":"UK","LAUNCH_DATE":"2021-04-25","SITE":"VOSTO","DECAY_DATE":null,"FILE":"3037384","GP_ID":"177403421","TLE_LINE0":"0 ONEWEB-0220","TLE_LINE1":"1 48232U 21031Y   21137.91667824 -.01344496  00000-0 -45444-1 0  9998","TLE_LINE2":"2 48232  87.4282 305.3293 0011419 166.5758 155.1196 15.33519397  1826"},{"CCSDS_OMM_VERS":"2.0","COMMENT":"GENERATED VIA SPACE-TRACK.ORG API","CREATION_DATE":"2021-05-18T06:56:11","ORIGINATOR":"18 SPCS","OBJECT_NAME":"ONEWEB-0220","OBJECT_ID":"2021-031Y","CENTER_NAME":"EARTH","REF_FRAME":"TEME","TIME_SYSTEM":"UTC","MEAN_ELEMENT_THEORY":"SGP4","EPOCH":"2021-05-18T04:00:00.999936","MEAN_MOTION":"15.32811123","ECCENTRICITY":"0.00115930","INCLINATION":"87.4302","RA_OF_ASC_NODE":"305.2434","ARG_OF_PERICENTER":"164.7891","MEAN_ANOMALY":"95.7796","EPHEMERIS_TYPE":"0","CLASSIFICATION_TYPE":"U","NORAD_CAT_ID":"48232","ELEMENT_SET_NO":"999","REV_AT_EPOCH":"341","BSTAR":"-0.04920300000000","MEAN_MOTION_DOT":"-0.01416596","MEAN_MOTION_DDOT":"0.0000000000000","SEMIMAJOR_AXIS":"6845.567","PERIOD":"93.945","APOAPSIS":"475.368","PERIAPSIS":"459.496","OBJECT_TYPE":"PAYLOAD","RCS_SIZE":"MEDIUM","COUNTRY_CODE":"UK","LAUNCH_DATE":"2021-04-25","SITE":"VOSTO","DECAY_DATE":null,"FILE":"3037490","GP_ID":"177406150","TLE_LINE0":"0 ONEWEB-0220","TLE_LINE1":"1 48232U 21031Y   21138.16667824 -.01416596  00000-0 -49203-1 0  9994","TLE_LINE2":"2 48232  87.4302 305.2434 0011593 164.7891  95.7796 15.32811123  3419"},{"CCSDS_OMM_VERS":"2.0","COMMENT":"GENERATED VIA SPACE-TRACK.ORG API","CREATION_DATE":"2021-05-18T14:26:11","ORIGINATOR":"18 SPCS","OBJECT_NAME":"ONEWEB-0220","OBJECT_ID":"2021-031Y","CENTER_NAME":"EARTH","REF_FRAME":"TEME","TIME_SYSTEM":"UTC","MEAN_ELEMENT_THEORY":"SGP4","EPOCH":"2021-05-18T12:00:00.999648","MEAN_MOTION":"15.31741103","ECCENTRICITY":"0.00116060","INCLINATION":"87.4327","RA_OF_ASC_NODE":"305.1272","ARG_OF_PERICENTER":"163.9484","MEAN_ANOMALY":"134.0943","EPHEMERIS_TYPE":"0","CLASSIFICATION_TYPE":"U","NORAD_CAT_ID":"48232","ELEMENT_SET_NO":"999","REV_AT_EPOCH":"346","BSTAR":"-0.04066800000000","MEAN_MOTION_DOT":"-0.01138148","MEAN_MOTION_DDOT":"0.0000000000000","SEMIMAJOR_AXIS":"6848.754","PERIOD":"94.011","APOAPSIS":"478.568","PERIAPSIS":"462.671","OBJECT_TYPE":"PAYLOAD","RCS_SIZE":"MEDIUM","COUNTRY_CODE":"UK","LAUNCH_DATE":"2021-04-25","SITE":"VOSTO","DECAY_DATE":null,"FILE":"3037854","GP_ID":"177414639","TLE_LINE0":"0 ONEWEB-0220","TLE_LINE1":"1 48232U 21031Y   21138.50001157 -.01138148  00000-0 -40668-1 0  9993","TLE_LINE2":"2 48232  87.4327 305.1272 0011606 163.9484 134.0943 15.31741103  3464"},{"CCSDS_OMM_VERS":"2.0","COMMENT":"GENERATED VIA SPACE-TRACK.ORG API","CREATION_DATE":"2021-05-18T20:22:04","ORIGINATOR":"18 SPCS","OBJECT_NAME":"ONEWEB-0220","OBJECT_ID":"2021-031Y","CENTER_NAME":"EARTH","REF_FRAME":"TEME","TIME_SYSTEM":"UTC","MEAN_ELEMENT_THEORY":"SGP4","EPOCH":"2021-05-18T14:00:01.999872","MEAN_MOTION":"15.31549162","ECCENTRICITY":"0.00114670","INCLINATION":"87.4333","RA_OF_ASC_NODE":"305.0977","ARG_OF_PERICENTER":"163.8134","MEAN_ANOMALY":"233.4618","EPHEMERIS_TYPE":"0","CLASSIFICATION_TYPE":"U","NORAD_CAT_ID":"48232","ELEMENT_SET_NO":"999","REV_AT_EPOCH":"181","BSTAR":"-0.04219200000000","MEAN_MOTION_DOT":"-0.01170568","MEAN_MOTION_DDOT":"0.0000000000000","SEMIMAJOR_AXIS":"6849.327","PERIOD":"94.022","APOAPSIS":"479.046","PERIAPSIS":"463.338","OBJECT_TYPE":"PAYLOAD","RCS_SIZE":"MEDIUM","COUNTRY_CODE":"UK","LAUNCH_DATE":"2021-04-25","SITE":"VOSTO","DECAY_DATE":null,"FILE":"3037983","GP_ID":"177440869","TLE_LINE0":"0 ONEWEB-0220","TLE_LINE1":"1 48232U 21031Y   21138.58335648 -.01170568  00000-0 -42192-1 0  9992","TLE_LINE2":"2 48232  87.4333 305.0977 0011467 163.8134 233.4618 15.31549162  1819"},{"CCSDS_OMM_VERS":"2.0","COMMENT":"GENERATED VIA SPACE-TRACK.ORG API","CREATION_DATE":"2021-05-19T02:12:01","ORIGINATOR":"18 SPCS","OBJECT_NAME":"ONEWEB-0220","OBJECT_ID":"2021-031Y","CENTER_NAME":"EARTH","REF_FRAME":"TEME","TIME_SYSTEM":"UTC","MEAN_ELEMENT_THEORY":"SGP4","EPOCH":"2021-05-18T22:00:01.999584","MEAN_MOTION":"15.30708338","ECCENTRICITY":"0.00114250","INCLINATION":"87.4355","RA_OF_ASC_NODE":"304.9814","ARG_OF_PERICENTER":"161.8891","MEAN_ANOMALY":"271.4516","EPHEMERIS_TYPE":"0","CLASSIFICATION_TYPE":"U","NORAD_CAT_ID":"48232","ELEMENT_SET_NO":"999","REV_AT_EPOCH":"180","BSTAR":"-0.03968400000000","MEAN_MOTION_DOT":"-0.01080260","MEAN_MOTION_DDOT":"0.0000000000000","SEMIMAJOR_AXIS":"6851.835","PERIOD":"94.074","APOAPSIS":"481.528","PERIAPSIS":"465.871","OBJECT_TYPE":"PAYLOAD","RCS_SIZE":"MEDIUM","COUNTRY_CODE":"UK","LAUNCH_DATE":"2021-04-25","SITE":"VOSTO","DECAY_DATE":null,"FILE":"3038155","GP_ID":"177467290","TLE_LINE0":"0 ONEWEB-0220","TLE_LINE1":"1 48232U 21031Y   21138.91668981 -.01080260  00000-0 -39684-1 0  9999","TLE_LINE2":"2 48232  87.4355 304.9814 0011425 161.8891 271.4516 15.30708338  1802"},{"CCSDS_OMM_VERS":"2.0","COMMENT":"GENERATED VIA SPACE-TRACK.ORG API","CREATION_DATE":"2021-05-19T14:56:11","ORIGINATOR":"18 SPCS","OBJECT_NAME":"ONEWEB-0220","OBJECT_ID":"2021-031Y","CENTER_NAME":"EARTH","REF_FRAME":"TEME","TIME_SYSTEM":"UTC","MEAN_ELEMENT_THEORY":"SGP4","EPOCH":"2021-05-19T12:00:00.999648","MEAN_MOTION":"15.29358568","ECCENTRICITY":"0.00115740","INCLINATION":"87.4393","RA_OF_ASC_NODE":"304.7807","ARG_OF_PERICENTER":"160.2805","MEAN_ANOMALY":"243.7882","EPHEMERIS_TYPE":"0","CLASSIFICATION_TYPE":"U","NORAD_CAT_ID":"48232","ELEMENT_SET_NO":"999","REV_AT_EPOCH":"362","BSTAR":"-0.04366000000000","MEAN_MOTION_DOT":"-0.01134860","MEAN_MOTION_DDOT":"0.0000000000000","SEMIMAJOR_AXIS":"6855.866","PERIOD":"94.157","APOAPSIS":"485.666","PERIAPSIS":"469.796","OBJECT_TYPE":"PAYLOAD","RCS_SIZE":"MEDIUM","COUNTRY_CODE":"UK","LAUNCH_DATE":"2021-04-25","SITE":"VOSTO","DECAY_DATE":null,"FILE":"3038456","GP_ID":"177473822","TLE_LINE0":"0 ONEWEB-0220","TLE_LINE1":"1 48232U 21031Y   21139.50001157 -.01134860  00000-0 -43660-1 0  9996","TLE_LINE2":"2 48232  87.4393 304.7807 0011574 160.2805 243.7882 15.29358568  3621"},{"CCSDS_OMM_VERS":"2.0","COMMENT":"GENERATED VIA SPACE-TRACK.ORG API","CREATION_DATE":"2021-05-19T17:58:49","ORIGINATOR":"18 SPCS","OBJECT_NAME":"ONEWEB-0220","OBJECT_ID":"2021-031Y","CENTER_NAME":"EARTH","REF_FRAME":"TEME","TIME_SYSTEM":"UTC","MEAN_ELEMENT_THEORY":"SGP4","EPOCH":"2021-05-19T14:00:01.000224","MEAN_MOTION":"15.29165850","ECCENTRICITY":"0.00116640","INCLINATION":"87.4398","RA_OF_ASC_NODE":"304.7514","ARG_OF_PERICENTER":"159.5497","MEAN_ANOMALY":"342.9747","EPHEMERIS_TYPE":"0","CLASSIFICATION_TYPE":"U","NORAD_CAT_ID":"48232","ELEMENT_SET_NO":"999","REV_AT_EPOCH":"179","BSTAR":"-0.04521400000000","MEAN_MOTION_DOT":"-0.01165444","MEAN_MOTION_DDOT":"0.0000000000000","SEMIMAJOR_AXIS":"6856.442","PERIOD":"94.169","APOAPSIS":"486.304","PERIAPSIS":"470.309","OBJECT_TYPE":"PAYLOAD","RCS_SIZE":"MEDIUM","COUNTRY_CODE":"UK","LAUNCH_DATE":"2021-04-25","SITE":"VOSTO","DECAY_DATE":null,"FILE":"3038649","GP_ID":"177501354","TLE_LINE0":"0 ONEWEB-0220","TLE_LINE1":"1 48232U 21031Y   21139.58334491 -.01165444  00000-0 -45214-1 0  9993","TLE_LINE2":"2 48232  87.4398 304.7514 0011664 159.5497 342.9747 15.29165850  1797"}]